SENTINEL-1A             
1 39634U 14016A   26197.85319166 -.00000111  00000+0 -13751-4 0  9996
2 39634  98.1769 204.9529 0001438  86.0799 274.0565 14.59195737654345
SENTINEL-1C             
1 62261U 24235A   26197.89259463 -.00000059  00000+0 -27743-5 0  9997
2 62261  98.1825 204.7791 0001333  88.8718 271.2634 14.59197683 85744
SENTINEL-1D             
1 66315U 25251A   26197.58417633 -.00000083  00000+0 -78224-5 0  9998
2 66315  98.1840 204.5303 0001330  88.9162 271.2190 14.59196979 37014
