{"fetched_at":"2026-07-17T06:38:34.817Z","source":"https://celestrak.org/NORAD/elements/gp.php?NAME=SENTINEL&FORMAT=JSON","constellation":"sentinel-1","records":[{"OBJECT_NAME":"SENTINEL-1A","OBJECT_ID":"2014-016A","EPOCH":"2026-07-16T20:28:35.759424","CLASSIFICATION_TYPE":"U","MEAN_MOTION":14.59195737,"ECCENTRICITY":0.0001438,"INCLINATION":98.1769,"RA_OF_ASC_NODE":204.9529,"ARG_OF_PERICENTER":86.0799,"MEAN_ANOMALY":274.0565,"EPHEMERIS_TYPE":0,"NORAD_CAT_ID":39634,"ELEMENT_SET_NO":999,"REV_AT_EPOCH":65434,"BSTAR":-0.000013751,"MEAN_MOTION_DOT":-0.00000111,"MEAN_MOTION_DDOT":0},{"OBJECT_NAME":"SENTINEL-1C","OBJECT_ID":"2024-235A","EPOCH":"2026-07-16T21:25:20.176032","CLASSIFICATION_TYPE":"U","MEAN_MOTION":14.59197683,"ECCENTRICITY":0.0001333,"INCLINATION":98.1825,"RA_OF_ASC_NODE":204.7791,"ARG_OF_PERICENTER":88.8718,"MEAN_ANOMALY":271.2634,"EPHEMERIS_TYPE":0,"NORAD_CAT_ID":62261,"ELEMENT_SET_NO":999,"REV_AT_EPOCH":8574,"BSTAR":-0.0000027743,"MEAN_MOTION_DOT":-5.9e-7,"MEAN_MOTION_DDOT":0},{"OBJECT_NAME":"SENTINEL-1D","OBJECT_ID":"2025-251A","EPOCH":"2026-07-16T14:01:12.834912","CLASSIFICATION_TYPE":"U","MEAN_MOTION":14.59196979,"ECCENTRICITY":0.000133,"INCLINATION":98.184,"RA_OF_ASC_NODE":204.5303,"ARG_OF_PERICENTER":88.9162,"MEAN_ANOMALY":271.219,"EPHEMERIS_TYPE":0,"NORAD_CAT_ID":66315,"ELEMENT_SET_NO":999,"REV_AT_EPOCH":3701,"BSTAR":-0.0000078224,"MEAN_MOTION_DOT":-8.3e-7,"MEAN_MOTION_DDOT":0}]}
